MEAN_MOTION;ECCENTRICITY;INCLINATION;RA_OF_ASC_NODE;ARG_OF_PERICENTER;MEAN_ANOMALY;BSTAR;MEAN_MOTION_DOT;MEAN_MOTION_DDOT;TYPE
1.00271871;0.0001953;0.0201;168.7861;184.503;91.5107;0;-2.52E-6;0;Intelsat
1.00271741;0.0001966;0.0201;167.0188;187.1268;213.8183;0;-2.53E-6;0;Intelsat
1.00271451;0.0001995;0.0209;164.6808;191.0204;111.4112;0;-2.56E-6;0;Intelsat
1.00271237;0.0002006;0.0214;162.4859;195.0886;321.1037;0;-2.58E-6;0;Intelsat
1.00271106;0.0002021;0.0221;161.1631;197.0745;85.7727;0;-2.59E-6;0;Intelsat
1.00270655;0.0002021;0.0194;192.7318;166.7563;306.8863;0;-2.61E-6;0;Intelsat
1.00271191;0.0002072;0.0192;190.3305;170.7665;77.1818;0;-2.62E-6;0;Intelsat
1.00271046;0.0002086;0.019;187.8795;174.6153;308.6247;0;-2.63E-6;0;Intelsat
1.00272797;0.0002076;0.0191;179.4823;185.0303;190.0073;0;-2.64E-6;0;Intelsat
1.0027261;0.0002069;0.0196;177.2604;188.8867;89.0844;0;-2.63E-6;0;Intelsat
1.00272581;0.0002072;0.0196;175.9127;191.2995;204.45;0;-2.63E-6;0;Intelsat
1.00272444;0.0002069;0.0202;172.5728;197.755;86.4871;0;-2.62E-6;0;Intelsat
1.00272306;0.0002067;0.0211;168.5578;205.2132;87.0538;0;-2.61E-6;0;Intelsat
1.00272192;0.0002062;0.0222;164.7449;212.0675;60.9137;0;-2.6E-6;0;Intelsat
1.00272988;0.0002137;0.0196;196.3964;182.286;292.2602;0;-2.6E-6;0;Intelsat
1.00272368;0.0002085;0.0192;194.5874;184.4468;87.4016;0;-2.59E-6;0;Intelsat
1.0027231;0.0002074;0.0189;192.4737;187.8315;297.9777;0;-2.59E-6;0;Intelsat
1.0027225;0.0002063;0.0189;190.6774;190.3117;76.5411;0;-2.58E-6;0;Intelsat
1.00272162;0.0002052;0.0186;188.2847;193.911;298.8288;0;-2.58E-6;0;Intelsat
1.00272088;0.0002038;0.0188;186.3995;196.4246;89.2388;0;-2.58E-6;0;Intelsat
1.00272065;0.0002088;0.0237;218.0515;165.6083;295.7107;0;-2.57E-6;0;Intelsat
1.00272067;0.0002087;0.0231;217.1157;166.5496;13.4086;0;-2.57E-6;0;Intelsat
1.00272237;0.000208;0.0231;216.2257;168.1325;90.4666;0;-2.57E-6;0;Intelsat
1.00272424;0.0002045;0.0222;213.9939;172.2838;295.8449;0;-2.56E-6;0;Intelsat
1.00272214;0.0002028;0.0217;212.1441;174.4524;91.0339;0;-2.56E-6;0;Intelsat
1.00271903;0.0002003;0.0205;208.8011;178.6116;69.1285;0;-2.55E-6;0;Intelsat
1.00271876;0.0001998;0.0206;208.1585;179.1625;93.1183;0;-2.55E-6;0;Intelsat
1.00271588;0.0001976;0.0196;204.986;183.0382;73.7671;0;-2.53E-6;0;Intelsat
1.0027357;0.0002008;0.0303;231.2539;152.944;194.9655;0;-2.52E-6;0;Intelsat
1.00270967;0.0001944;0.0297;230.8804;156.217;280.0549;0;-2.52E-6;0;Intelsat
1.00271446;0.000199;0.0288;230.1989;157.2986;98.5428;0;-2.51E-6;0;Intelsat
1.00271195;0.0001973;0.0271;227.6078;159.8104;75.4931;0;-2.49E-6;0;Intelsat
1.00270866;0.0001959;0.0254;225.0896;162.3264;52.3766;0;-2.47E-6;0;Intelsat
1.00270839;0.0001958;0.0254;224.9198;162.4346;78.3708;0;-2.46E-6;0;Intelsat
1.00274458;0.0001838;0.0251;224.236;156.2667;292.5362;0;-2.45E-6;0;Intelsat
1.00274055;0.0001819;0.0244;223.0374;157.1075;88.3621;0;-2.44E-6;0;Intelsat
1.00273854;0.0001822;0.0236;221.7026;157.8072;296.3374;0;-2.43E-6;0;Intelsat
1.00273671;0.0001818;0.0229;220.4207;158.8111;92.0956;0;-2.42E-6;0;Intelsat
1.00273403;0.0001828;0.0222;218.3851;161.1869;303.0497;0;-2.41E-6;0;Intelsat
1.0027323;0.0001825;0.0216;217.1957;162.4136;94.5412;0;-2.4E-6;0;Intelsat
1.00272836;0.0001836;0.0203;214.6695;164.1531;75.3072;0;-2.4E-6;0;Intelsat
1.00272812;0.0001838;0.0203;214.6277;164.2137;98.1116;0;-2.4E-6;0;Intelsat
1.00272392;0.0001861;0.0192;210.8252;167.9359;100.9945;0;-2.4E-6;0;Intelsat
1.00272282;0.0001877;0.0187;210.0002;168.8615;198.1807;0;-2.41E-6;0;Intelsat
1.00271962;0.0001891;0.0184;207.1716;171.5271;103.8562;0;-2.42E-6;0;Intelsat
1.00271719;0.0001924;0.018;204.8033;174.4618;310.5901;0;-2.43E-6;0;Intelsat
1.00271553;0.0001928;0.0179;201.5152;177.6594;91.6087;0;-2.44E-6;0;Intelsat
1.0027117;0.0001969;0.0177;196.2866;183.8312;56.2263;0;-2.47E-6;0;Intelsat
1.00271145;0.0001972;0.0178;196.2167;183.9171;82.1193;0;-2.47E-6;0;Intelsat
1.0027074;0.0002021;0.018;190.7216;190.9261;83.4019;0;-2.51E-6;0;Intelsat
1.00270715;0.0002024;0.018;190.6968;191.0402;109.2294;0;-2.51E-6;0;Intelsat
1.00270337;0.0002075;0.0189;185.845;197.9346;109.9714;0;-2.54E-6;0;Intelsat
1.00270266;0.0002084;0.019;183.8574;200.5498;187.0813;0;-2.55E-6;0;Intelsat
1.00269992;0.0002125;0.02;180.0514;206.2088;110.2923;0;-2.57E-6;0;Intelsat
1.00267817;0.0002242;0.0195;188.1222;201.9173;197.9618;0;-2.58E-6;0;Intelsat
1.00267532;0.0002267;0.0202;185.2182;205.9461;83.7746;0;-2.59E-6;0;Intelsat
1.00273308;0.0002148;0.0212;182.4144;202.2898;91.5262;0;-2.59E-6;0;Intelsat
1.0027307;0.0002175;0.0226;177.0257;210.3791;91.6206;0;-2.59E-6;0;Intelsat
1.00272901;0.0002189;0.0245;171.3952;218.3112;40.2951;0;-2.58E-6;0;Intelsat
1.00272799;0.0002206;0.0256;168.4439;223.9054;209.9756;0;-2.58E-6;0;Intelsat
1.00272702;0.0002222;0.0269;165.0568;229.1413;90.4479;0;-2.57E-6;0;Intelsat
1.00272604;0.0002224;0.0282;161.2322;234.6405;296.1074;0;-2.56E-6;0;Intelsat
1.0027256;0.000224;0.0294;158.7995;238.5174;83.2995;0;-2.56E-6;0;Intelsat
1.00272462;0.0002239;0.0303;154.8056;243.8431;296.0774;0;-2.55E-6;0;Intelsat
1.00272425;0.0002253;0.0314;152.5198;247.6114;90.1361;0;-2.55E-6;0;Intelsat
1.00272326;0.0002251;0.0335;148.0312;253.3817;303.2504;0;-2.54E-6;0;Intelsat
1.00272295;0.0002254;0.0343;146.5735;255.839;64.7429;0;-2.54E-6;0;Intelsat
1.00274686;0.0002364;0.0212;188.0475;212.242;186.2262;0;-2.53E-6;0;Intelsat
1.00272529;0.0002287;0.0213;186.8645;216.2047;297.3045;0;-2.53E-6;0;Intelsat
1.0027237;0.0002274;0.022;184.0268;220.0158;91.8364;0;-2.53E-6;0;Intelsat
1.00272263;0.0002267;0.0227;179.8839;225.2846;298.0162;0;-2.53E-6;0;Intelsat
1.00272185;0.0002257;0.0231;176.4758;229.7334;96.2194;0;-2.52E-6;0;Intelsat
1.00272055;0.000225;0.024;172.303;234.8279;298.8574;0;-2.52E-6;0;Intelsat
1.00271999;0.0002243;0.0249;170.137;237.3748;42.1498;0;-2.51E-6;0;Intelsat
1.00271971;0.0002237;0.0249;169.6299;238.2141;93.6199;0;-2.51E-6;0;Intelsat
1.00271761;0.0002215;0.0268;163.4484;245.5437;69.3808;0;-2.5E-6;0;Intelsat
1.00271743;0.0002211;0.0268;162.899;246.2123;95.1784;0;-2.5E-6;0;Intelsat
1.00271477;0.0002181;0.0296;155.0576;254.9334;110.0238;0;-2.48E-6;0;Intelsat
1.00271424;0.0002172;0.0304;153.4377;256.8131;174.5772;0;-2.48E-6;0;Intelsat
1.00271233;0.0002156;0.0317;150.0452;260.5546;66.1009;0;-2.46E-6;0;Intelsat
1.00271108;0.0002157;0.0197;197.4381;212.2908;281.5618;0;-2.45E-6;0;Intelsat
1.00271059;0.0002154;0.0201;194.9227;215.401;76.4328;0;-2.44E-6;0;Intelsat
1.0027086;0.0002129;0.0205;192.0294;218.1626;283.8942;0;-2.43E-6;0;Intelsat
1.00270704;0.0002115;0.0212;189.5048;220.5924;77.3754;0;-2.41E-6;0;Intelsat
1.00277066;0.0001726;0.0216;189.4821;212.563;310.9969;0;-2.39E-6;0;Intelsat
1.00276602;0.0001699;0.0223;186.8845;213.4948;117.8812;0;-2.38E-6;0;Intelsat
1.00276445;0.0001683;0.0233;183.5012;216.7468;299.4085;0;-2.37E-6;0;Intelsat
1.00273403;0.0001505;0.0257;175.7018;220.3791;202.7215;0;-2.36E-6;0;Intelsat
1.00273086;0.0001513;0.027;172.0959;223.2482;21.67;0;-2.34E-6;0;Intelsat
1.00272959;0.0001512;0.0272;171.4781;223.464;103.0082;0;-2.34E-6;0;Intelsat
1.00272779;0.000151;0.029;166.1359;227.2633;311.8833;0;-2.34E-6;0;Intelsat
1.00272586;0.0001503;0.0303;162.9678;229.8577;94.2396;0;-2.33E-6;0;Intelsat
1.00272364;0.0001479;0.0327;154.0443;241.6535;312.3723;0;-2.33E-6;0;Intelsat
1.0027218;0.0001471;0.0341;150.0512;245.56;107.9437;0;-2.33E-6;0;Intelsat
1.00271941;0.0001483;0.0371;140.1451;255.1704;315.5482;0;-2.33E-6;0;Intelsat
1.00271763;0.0001476;0.0381;136.8411;258.4935;102.6939;0;-2.34E-6;0;Intelsat
1.00271511;0.0001496;0.0397;131.4405;263.9107;318.3185;0;-2.35E-6;0;Intelsat
1.00271358;0.0001492;0.0398;132.5965;262.7116;87.947;0;-2.36E-6;0;Intelsat
1.00271088;0.0001519;0.0415;126.5132;269.2688;320.6831;0;-2.38E-6;0;Intelsat
1.00271068;0.0001588;0.0259;179.2662;216.1923;194.239;0;-2.4E-6;0;Intelsat
1.00270909;0.0001606;0.0264;176.5784;219.4084;323.2945;0;-2.41E-6;0;Intelsat
1.00270533;0.0001622;0.029;167.7604;228.5303;207.5666;0;-2.43E-6;0;Intelsat
1.00270274;0.0001652;0.0306;161.4082;235.6024;101.8738;0;-2.45E-6;0;Intelsat
1.0027016;0.0001669;0.0322;156.5101;241.6169;223.0755;0;-2.47E-6;0;Intelsat
1.00270036;0.0001682;0.0334;150.9907;248.0465;325.8313;0;-2.47E-6;0;Intelsat
1.00269908;0.0001695;0.0344;147.9723;251.5659;94.7494;0;-2.48E-6;0;Intelsat
1.00269788;0.0001712;0.0359;142.9757;258.1485;238.4968;0;-2.5E-6;0;Intelsat
1.00269701;0.0001724;0.0369;136.5686;265.2103;325.8832;0;-2.5E-6;0;Intelsat
1.00269611;0.000174;0.0377;133.5122;268.6406;69.1701;0;-2.51E-6;0;Intelsat
1.00269785;0.0001837;0.0219;202.9583;200.7055;319.4455;0;-2.52E-6;0;Intelsat
1.00269364;0.0001845;0.0227;199.724;203.705;96.5818;0;-2.52E-6;0;Intelsat
1.00269243;0.000187;0.0237;194.5119;210.8546;323.2314;0;-2.53E-6;0;Intelsat
1.00269118;0.0001892;0.0247;191.5071;214.3226;96.9806;0;-2.52E-6;0;Intelsat
1.00273658;0.0001868;0.0249;190.2213;211.3805;314.7164;0;-2.52E-6;0;Intelsat
1.00272992;0.0001851;0.0261;185.0092;217.8572;102.6688;0;-2.51E-6;0;Intelsat
1.00272755;0.0001877;0.0311;170.5931;233.9851;51.9945;0;-2.51E-6;0;Intelsat
1.00272726;0.0001886;0.0312;169.9899;234.9465;103.4708;0;-2.51E-6;0;Intelsat
1.00272584;0.0001897;0.0368;153.5419;255.6927;70.3736;0;-2.5E-6;0;Intelsat
1.00272429;0.0001917;0.0419;132.6154;279.7546;75.7166;0;-2.49E-6;0;Intelsat
1.0027228;0.0001927;0.0434;133.1912;282.1503;86.1077;0;-2.48E-6;0;Intelsat
1.00271892;0.0001949;0.0232;209.7543;206.0639;306.421;0;-2.47E-6;0;Intelsat
1.00272083;0.0001971;0.0241;205.8364;210.9886;69.2523;0;-2.47E-6;0;Intelsat
1.00272055;0.0001973;0.0245;202.4962;215.3561;179.5089;0;-2.47E-6;0;Intelsat
1.00271938;0.0001964;0.0288;189.4049;230.1861;92.3737;0;-2.46E-6;0;Intelsat
1.00271887;0.000196;0.0306;182.4977;237.8078;184.5584;0;-2.46E-6;0;Intelsat
1.00271812;0.0001953;0.0314;178.1057;242.4719;309.1497;0;-2.46E-6;0;Intelsat
1.00271772;0.0001946;0.033;172.9749;248.045;26.4695;0;-2.46E-6;0;Intelsat
1.00270956;0.0001964;0.0239;234.222;187.593;181.0464;0;-2.46E-6;0;Intelsat
1.0027149;0.0001951;0.0239;230.6501;190.8448;80.5992;0;-2.45E-6;0;Intelsat
1.00271413;0.0001939;0.0237;228.4584;193.7791;194.4994;0;-2.44E-6;0;Intelsat
